{
  "norad_id": 33320,
  "name": "HUANJING 1A (HJ-1A)",
  "history": [
    {
      "epoch": "2026-03-28T22:08:27.634848Z",
      "apogee_km": 631.6215393336097,
      "perigee_km": 603.1973748800219,
      "latitude_deg": 9.685469300835456e-06,
      "longitude_deg": -81.55718138848968,
      "height_km": 610.4068522894436,
      "semi_major_axis_km": 6995.546457106815,
      "eccentricity": 0.00203159,
      "inclination_deg": 97.6653,
      "raan_deg": 76.894,
      "arg_perigee_deg": 45.2919,
      "mean_anomaly_deg": 314.9946,
      "mean_motion_rev_day": 14.8378267
    },
    {
      "epoch": "2026-03-29T04:36:53.672832Z",
      "apogee_km": 631.6287289002876,
      "perigee_km": 603.1736777045344,
      "latitude_deg": -5.5869649684442634e-05,
      "longitude_deg": -178.67223774867801,
      "height_km": 610.2478607311014,
      "semi_major_axis_km": 6995.538203302411,
      "eccentricity": 0.0020338,
      "inclination_deg": 97.6652,
      "raan_deg": 77.1533,
      "arg_perigee_deg": 44.4901,
      "mean_anomaly_deg": 315.7942,
      "mean_motion_rev_day": 14.83785296
    }
  ]
}